TEIKYOSAT-4 (OORURI)    
1 49396U 21102B   26068.67534185  .00002438  00000+0  15740-3 0  9994
2 49396  97.3797 101.9931 0010345 276.5421  83.4630 15.09119208237719
STARLINK-3197           
1 49757U 21115AK  26068.48196619 -.00000860  00000+0 -35980-4 0  9992
2 49757  53.2177 140.0638 0001371 100.0108 260.1039 15.08839558235646
