[{"OBJECT_NAME":"TEIKYOSAT-4 (OORURI)","OBJECT_ID":"2021-102B","EPOCH":"2026-03-09T16:12:29.535840","MEAN_MOTION":15.09119208,"ECCENTRICITY":0.00103447,"INCLINATION":97.3797,"RA_OF_ASC_NODE":101.9931,"ARG_OF_PERICENTER":276.5421,"MEAN_ANOMALY":83.463,"EPHEMERIS_TYPE":0,"CLASSIFICATION_TYPE":"U","NORAD_CAT_ID":49396,"ELEMENT_SET_NO":999,"REV_AT_EPOCH":23771,"BSTAR":0.00015739844,"MEAN_MOTION_DOT":2.438e-5,"MEAN_MOTION_DDOT":0},{"OBJECT_NAME":"STARLINK-3197","OBJECT_ID":"2021-115AK","EPOCH":"2026-03-09T11:34:01.878816","MEAN_MOTION":15.08839558,"ECCENTRICITY":0.00013711,"INCLINATION":53.2177,"RA_OF_ASC_NODE":140.0638,"ARG_OF_PERICENTER":100.0108,"MEAN_ANOMALY":260.1039,"EPHEMERIS_TYPE":0,"CLASSIFICATION_TYPE":"U","NORAD_CAT_ID":49757,"ELEMENT_SET_NO":999,"REV_AT_EPOCH":23564,"BSTAR":-3.5980162e-5,"MEAN_MOTION_DOT":-8.6e-6,"MEAN_MOTION_DDOT":0}]
